{"type": "FeatureCollection", "features": [{"type": "Feature", "properties": {"norad_id": 25590, "name": "COSMOS 2361", "group": "musson", "lat": -0.9934188051423604, "lon": 168.22344890633278, "alt_km": 995.0600838261971, "timestamp": "2025-12-07T07:31:36.567994+00:00", "meta": {"OBJECT_NAME": "COSMOS 2361", "OBJECT_ID": "1998-076A", "EPOCH": "2025-12-06T20:28:15.021696", "MEAN_MOTION": 13.73216536, "ECCENTRICITY": 0.00300922, "INCLINATION": 82.9339, "RA_OF_ASC_NODE": 348.4408, "ARG_OF_PERICENTER": 282.7006, "MEAN_ANOMALY": 142.4657, "EPHEMERIS_TYPE": 0, "CLASSIFICATION_TYPE": "U", "NORAD_CAT_ID": 25590, "ELEMENT_SET_NO": 999, "REV_AT_EPOCH": 35030, "BSTAR": 8.7486343e-05, "MEAN_MOTION_DOT": 9.6e-07, "MEAN_MOTION_DDOT": 0}, "tle": {"line1": "1 25590U 98076A   25340.85295164  .00000096  00000+0  87486-4 0  9996", "line2": "2 25590  82.9339 348.4408 0030092 282.7006 142.4657 13.73216536350304"}}, "geometry": {"type": "Point", "coordinates": [168.22344890633278, -0.9934188051423604]}}, {"type": "Feature", "properties": {"norad_id": 26818, "name": "COSMOS 2378", "group": "musson", "lat": -55.341454029192434, "lon": -165.9068925147756, "alt_km": 969.0085961636032, "timestamp": "2025-12-07T07:31:36.568015+00:00", "meta": {"OBJECT_NAME": "COSMOS 2378", "OBJECT_ID": "2001-023A", "EPOCH": "2025-12-06T21:56:25.725696", "MEAN_MOTION": 13.74141293, "ECCENTRICITY": 0.00320867, "INCLINATION": 82.9275, "RA_OF_ASC_NODE": 4.0447, "ARG_OF_PERICENTER": 221.4372, "MEAN_ANOMALY": 199.5404, "EPHEMERIS_TYPE": 0, "CLASSIFICATION_TYPE": "U", "NORAD_CAT_ID": 26818, "ELEMENT_SET_NO": 999, "REV_AT_EPOCH": 22843, "BSTAR": 7.3000779e-05, "MEAN_MOTION_DOT": 8.4e-07, "MEAN_MOTION_DDOT": 0}, "tle": {"line1": "1 26818U 01023A   25340.91418664  .00000084  00000+0  73001-4 0  9990", "line2": "2 26818  82.9275   4.0447 0032086 221.4372 199.5404 13.74141293228435"}}, "geometry": {"type": "Point", "coordinates": [-165.9068925147756, -55.341454029192434]}}, {"type": "Feature", "properties": {"norad_id": 27436, "name": "COSMOS 2389", "group": "musson", "lat": 61.98921282122017, "lon": -35.54560425278324, "alt_km": 940.7921585576978, "timestamp": "2025-12-07T07:31:36.568029+00:00", "meta": {"OBJECT_NAME": "COSMOS 2389", "OBJECT_ID": "2002-026A", "EPOCH": "2025-12-06T22:45:12.555072", "MEAN_MOTION": 13.75153814, "ECCENTRICITY": 0.0047736, "INCLINATION": 82.9497, "RA_OF_ASC_NODE": 311.2726, "ARG_OF_PERICENTER": 76.4798, "MEAN_ANOMALY": 337.8266, "EPHEMERIS_TYPE": 0, "CLASSIFICATION_TYPE": "U", "NORAD_CAT_ID": 27436, "ELEMENT_SET_NO": 999, "REV_AT_EPOCH": 18069, "BSTAR": 8.9906083e-05, "MEAN_MOTION_DOT": 1.02e-06, "MEAN_MOTION_DDOT": 0}, "tle": {"line1": "1 27436U 02026A   25340.94806198  .00000102  00000+0  89906-4 0  9999", "line2": "2 27436  82.9497 311.2726 0047736  76.4798 337.8266 13.75153814180690"}}, "geometry": {"type": "Point", "coordinates": [-35.54560425278324, 61.98921282122017]}}, {"type": "Feature", "properties": {"norad_id": 27818, "name": "COSMOS 2398", "group": "musson", "lat": 68.20541131916774, "lon": -65.27031954004727, "alt_km": 971.339472109611, "timestamp": "2025-12-07T07:31:36.568040+00:00", "meta": {"OBJECT_NAME": "COSMOS 2398", "OBJECT_ID": "2003-023A", "EPOCH": "2025-12-06T22:46:59.808576", "MEAN_MOTION": 13.72384768, "ECCENTRICITY": 0.00323652, "INCLINATION": 82.948, "RA_OF_ASC_NODE": 276.9654, "ARG_OF_PERICENTER": 127.3377, "MEAN_ANOMALY": 303.4222, "EPHEMERIS_TYPE": 0, "CLASSIFICATION_TYPE": "U", "NORAD_CAT_ID": 27818, "ELEMENT_SET_NO": 999, "REV_AT_EPOCH": 12737, "BSTAR": 7.3272107e-05, "MEAN_MOTION_DOT": 8.3e-07, "MEAN_MOTION_DDOT": 0}, "tle": {"line1": "1 27818U 03023A   25340.94930334  .00000083  00000+0  73272-4 0  9998", "line2": "2 27818  82.9480 276.9654 0032365 127.3377 303.4222 13.72384768127372"}}, "geometry": {"type": "Point", "coordinates": [-65.27031954004727, 68.20541131916774]}}, {"type": "Feature", "properties": {"norad_id": 28380, "name": "COSMOS 2407", "group": "musson", "lat": -9.228675108588003, "lon": 38.06003805062327, "alt_km": 995.6639028880891, "timestamp": "2025-12-07T07:31:36.568053+00:00", "meta": {"OBJECT_NAME": "COSMOS 2407", "OBJECT_ID": "2004-028A", "EPOCH": "2025-12-06T21:56:46.618944", "MEAN_MOTION": 13.76312679, "ECCENTRICITY": 0.00404786, "INCLINATION": 82.9615, "RA_OF_ASC_NODE": 217.2054, "ARG_OF_PERICENTER": 70.6389, "MEAN_ANOMALY": 301.3845, "EPHEMERIS_TYPE": 0, "CLASSIFICATION_TYPE": "U", "NORAD_CAT_ID": 28380, "ELEMENT_SET_NO": 999, "REV_AT_EPOCH": 7343, "BSTAR": 0.00010163308, "MEAN_MOTION_DOT": 1.15e-06, "MEAN_MOTION_DDOT": 0}, "tle": {"line1": "1 28380U 04028A   25340.91442846  .00000115  00000+0  10163-3 0  9997", "line2": "2 28380  82.9615 217.2054 0040478  70.6389 301.3845 13.76312679 73437"}}, "geometry": {"type": "Point", "coordinates": [38.06003805062327, -9.228675108588003]}}, {"type": "Feature", "properties": {"norad_id": 28521, "name": "COSMOS 2414", "group": "musson", "lat": -46.210982589208484, "lon": 16.180188148119516, "alt_km": 933.3120281470074, "timestamp": "2025-12-07T07:31:36.568081+00:00", "meta": {"OBJECT_NAME": "COSMOS 2414", "OBJECT_ID": "2005-002A", "EPOCH": "2025-12-06T16:35:58.790688", "MEAN_MOTION": 13.87901824, "ECCENTRICITY": 0.00405306, "INCLINATION": 82.9498, "RA_OF_ASC_NODE": 189.2332, "ARG_OF_PERICENTER": 156.6893, "MEAN_ANOMALY": 203.612, "EPHEMERIS_TYPE": 0, "CLASSIFICATION_TYPE": "U", "NORAD_CAT_ID": 28521, "ELEMENT_SET_NO": 999, "REV_AT_EPOCH": 5711, "BSTAR": 9.2076836e-05, "MEAN_MOTION_DOT": 1.26e-06, "MEAN_MOTION_DDOT": 0}, "tle": {"line1": "1 28521U 05002A   25340.69165267  .00000126  00000+0  92077-4 0  9998", "line2": "2 28521  82.9498 189.2332 0040530 156.6893 203.6120 13.87901824 57119"}}, "geometry": {"type": "Point", "coordinates": [16.180188148119516, -46.210982589208484]}}, {"type": "Feature", "properties": {"norad_id": 32052, "name": "COSMOS 2429", "group": "musson", "lat": -67.7886620804317, "lon": -175.12820258134659, "alt_km": 1016.324437160778, "timestamp": "2025-12-07T07:31:36.568095+00:00", "meta": {"OBJECT_NAME": "COSMOS 2429", "OBJECT_ID": "2007-038A", "EPOCH": "2025-12-06T18:05:52.043712", "MEAN_MOTION": 13.75148552, "ECCENTRICITY": 0.00395057, "INCLINATION": 82.9803, "RA_OF_ASC_NODE": 347.7218, "ARG_OF_PERICENTER": 54.1616, "MEAN_ANOMALY": 306.3199, "EPHEMERIS_TYPE": 0, "CLASSIFICATION_TYPE": "U", "NORAD_CAT_ID": 32052, "ELEMENT_SET_NO": 999, "REV_AT_EPOCH": 91520, "BSTAR": 7.4525821e-05, "MEAN_MOTION_DOT": 8.7e-07, "MEAN_MOTION_DDOT": 0}, "tle": {"line1": "1 32052U 07038A   25340.75407458  .00000087  00000+0  74526-4 0  9996", "line2": "2 32052  82.9803 347.7218 0039505  54.1616 306.3199 13.75148552915200"}}, "geometry": {"type": "Point", "coordinates": [-175.12820258134659, -67.7886620804317]}}, {"type": "Feature", "properties": {"norad_id": 35635, "name": "COSMOS 2454", "group": "musson", "lat": -56.35971483543254, "lon": 3.467061615085966, "alt_km": 948.7507942811026, "timestamp": "2025-12-07T07:31:36.568106+00:00", "meta": {"OBJECT_NAME": "COSMOS 2454", "OBJECT_ID": "2009-039A", "EPOCH": "2025-12-06T22:17:21.427872", "MEAN_MOTION": 13.89927593, "ECCENTRICITY": 0.00204951, "INCLINATION": 82.9557, "RA_OF_ASC_NODE": 173.05, "ARG_OF_PERICENTER": 89.2813, "MEAN_ANOMALY": 22.7242, "EPHEMERIS_TYPE": 0, "CLASSIFICATION_TYPE": "U", "NORAD_CAT_ID": 35635, "ELEMENT_SET_NO": 999, "REV_AT_EPOCH": 83069, "BSTAR": 7.896036e-05, "MEAN_MOTION_DOT": 1.13e-06, "MEAN_MOTION_DDOT": 0}, "tle": {"line1": "1 35635U 09039A   25340.92872023  .00000113  00000+0  78960-4 0  9998", "line2": "2 35635  82.9557 173.0500 0020495  89.2813  22.7242 13.89927593830698"}}, "geometry": {"type": "Point", "coordinates": [3.467061615085966, -56.35971483543254]}}, {"type": "Feature", "properties": {"norad_id": 36519, "name": "COSMOS 2463", "group": "musson", "lat": -82.15910347583595, "lon": -33.07806386804086, "alt_km": 978.7482956753884, "timestamp": "2025-12-07T07:31:36.568118+00:00", "meta": {"OBJECT_NAME": "COSMOS 2463", "OBJECT_ID": "2010-017A", "EPOCH": "2025-12-06T22:17:11.124672", "MEAN_MOTION": 13.71648343, "ECCENTRICITY": 0.00349564, "INCLINATION": 82.9617, "RA_OF_ASC_NODE": 30.9827, "ARG_OF_PERICENTER": 304.7523, "MEAN_ANOMALY": 228.7937, "EPHEMERIS_TYPE": 0, "CLASSIFICATION_TYPE": "U", "NORAD_CAT_ID": 36519, "ELEMENT_SET_NO": 999, "REV_AT_EPOCH": 78157, "BSTAR": 8.2092979e-05, "MEAN_MOTION_DOT": 8.9e-07, "MEAN_MOTION_DDOT": 0}, "tle": {"line1": "1 36519U 10017A   25340.92860098  .00000089  00000+0  82093-4 0  9991", "line2": "2 36519  82.9617  30.9827 0034956 304.7523 228.7937 13.71648343781575"}}, "geometry": {"type": "Point", "coordinates": [-33.07806386804086, -82.15910347583595]}}]}